CUTE-1.7+APD II (CO-65) 
1 32785U 08021C   26063.14097273  .00010389  00000+0  67316-3 0  9992
2 32785  97.8200  42.5131 0010258  36.1381 324.0538 15.08277099969352
SEEDS II (CO-66)        
1 32791U 08021J   26062.50727596  .00024010  00000+0  86001-3 0  9994
2 32791  97.7506  55.6816 0002563  18.3674 341.7657 15.28751446971120
YUBILEINY (RS30)        
1 32953U 08025A   26063.15483562 -.00000010  00000+0 -14620-3 0  9996
2 32953  82.4984  60.7671 0019326 177.3409 182.7776 12.43175748806642
KKS-1 (KISEKI)          
1 33499U 09002H   26063.06644778  .00002743  00000+0  34588-3 0  9994
2 33499  98.1190 343.8765 0006457 273.0267  87.0207 14.82803766920610
SWISSCUBE               
1 35932U 09051B   26063.14010608  .00001765  00000+0  35991-3 0  9992
2 35932  98.4105 329.1845 0006697 169.2734 190.8611 14.62241691873801
BEESAT-1                
1 35933U 09051C   26063.16455565  .00001483  00000+0  30888-3 0  9997
2 35933  98.4035 329.0606 0004926 180.2881 179.8317 14.61518154873841
ITUPSAT1                
1 35935U 09051E   26062.72139682  .00001275  00000+0  27434-3 0  9991
2 35935  98.4123 327.9111 0006873 197.5625 162.5338 14.60252771873345
XIWANG-1 (HOPE-1)       
1 36122U 09072B   26063.13703705  .00000231  00000+0  71995-3 0  9994
2 36122 100.3905  18.7054 0008045 111.2998 248.8974 13.16437294779181
O/OREOS (USA 219)       
1 37224U 10062C   26063.10442982  .00003669  00000+0  35546-3 0  9993
2 37224  71.9724 318.2844 0016930 266.0807  93.8428 14.93245360100954
JUGNU                   
1 37839U 11058B   26062.79194167  .00000537  00000+0  14085-3 0  9990
2 37839  19.9596 228.7283 0018664 352.6019 135.4486 14.13737704744096
SRMSAT                  
1 37841U 11058D   26063.11917397  .00000501  00000+0  12795-3 0  9995
2 37841  19.9731 335.4194 0011882 128.0964  11.1385 14.11545206742959
STRAND-1                
1 39090U 13009E   26063.06396808  .00000536  00000+0  19483-3 0  9992
2 39090  98.3881 245.8956 0008669 178.1921 181.9299 14.37089198681966
ZACUBE-1 (TSHEPISOSAT)  
1 39417U 13066B   26063.12768713  .00007552  00000+0  59707-3 0  9991
2 39417  97.8183  24.9240 0041699 238.7498 120.9637 15.00255417664973
GOMX-1                  
1 39430U 13066Q   26063.10358192  .00002216  00000+0  33884-3 0  9990
2 39430  97.6569 270.1571 0130600  55.2913 306.0515 14.69071007654483
CUBEBUG-2 (LO-74)       
1 39440U 13066AA  26062.86655321  .00008858  00000+0  83132-3 0  9996
2 39440  97.8812  11.5305 0059388  18.3107 342.0232 14.92865511661275
FUNCUBE-1 (AO-73)       
1 39444U 13066AE  26062.33666782  .00010715  00000+0  69419-3 0  9992
2 39444  97.8168  31.7675 0036610 201.2550 158.7158 15.07759862663702
